NORAD_CAT_ID,OBJECT_NAME,OBJECT_TYPE,EPOCH,MEAN_MOTION,ECCENTRICITY,INCLINATION,RA_OF_ASC_NODE,ARG_OF_PERICENTER,MEAN_ANOMALY,BSTAR,MEAN_MOTION_DOT,MEAN_MOTION_DDOT,TLE_LINE0,TLE_LINE1,TLE_LINE2,SEMIMAJOR_AXIS,PERIOD,APOGEE,PERIGEE,DECAYED
53801.0,STARLINK-4715,PAYLOAD,2024-05-11 00:22:54,15.10496913,9.99e-05,53.2177,21.1879,115.5389,244.5707,0.0014284,0.00023579,0.0,0 STARLINK-4715,1 53801U 22111AE  24132.01590883  .00023579  00000-0  14284-2 0  9997,2 53801  53.2177  21.1879 0000999 115.5389 244.5707 15.10496913 92213,6912.82,95.333,535.376,533.995,0.0
53801.0,STARLINK-4715,PAYLOAD,2024-05-11 21:01:33,15.10358931,0.0001934,53.2177,17.3205,26.7501,333.3591,0.00014431,2.103e-05,0.0,0 STARLINK-4715,1 53801U 22111AE  24132.87607828  .00002103  00000-0  14431-3 0  9994,2 53801  53.2177  17.3205 0001934  26.7501 333.3591 15.10358931 92341,6913.242,95.342,536.444,533.769,0.0
53801.0,STARLINK-4715,PAYLOAD,2024-05-11 22:36:51,15.10261579,0.0001688,53.2173,17.0234,86.6387,273.4799,-0.0058949,-0.00096545,0.0,0 STARLINK-4715,1 53801U 22111AE  24132.94226418 -.00096545  00000-0 -58949-2 0  9990,2 53801  53.2173  17.0234 0001688  86.6387 273.4799 15.10261579 93165,6913.539,95.348,536.571,534.237,0.0
53801.0,STARLINK-4715,PAYLOAD,2024-05-12 04:58:05,15.10039366,0.0001689,53.2175,15.8333,125.1759,234.9392,-0.0003563,-6.147e-05,0.0,0 STARLINK-4715,1 53801U 22111AE  24133.20701233 -.00006147  00000-0 -35630-3 0  9995,2 53801  53.2175  15.8333 0001689 125.1759 234.9392 15.10039366 92398,6914.217,95.362,537.25,534.914,0.0
53801.0,STARLINK-4715,PAYLOAD,2024-05-12 09:44:04,15.09800917,0.0002269,53.218,14.9441,57.643,302.4782,0.00075295,0.00012034,0.0,0 STARLINK-4715,1 53801U 22111AE  24133.40561221  .00012034  00000-0  75295-3 0  9999,2 53801  53.2180  14.9441 0002269  57.6430 302.4782 15.09800917 92428,6914.945,95.377,538.379,535.241,0.0
53801.0,STARLINK-4715,PAYLOAD,2024-05-12 20:51:28,15.09431084,0.0001349,53.2182,12.8582,79.7829,280.3315,-0.0031254,-0.00050489,0.0,0 STARLINK-4715,1 53801U 22111AE  24133.86907985 -.00050489  00000-0 -31254-2 0  9994,2 53801  53.2182  12.8582 0001349  79.7829 280.3315 15.09431084 92496,6916.074,95.4,538.872,537.006,0.0
53801.0,STARLINK-4715,PAYLOAD,2024-05-12 22:26:50,15.0935606,0.0001399,53.218,12.5606,87.943,272.1723,-0.0046633,-0.00074782,0.0,0 STARLINK-4715,1 53801U 22111AE  24133.93530198 -.00074782  00000-0 -46633-2 0  9999,2 53801  53.2180  12.5606 0001399  87.9430 272.1723 15.09356060 93316,6916.303,95.405,539.136,537.201,0.0
53801.0,STARLINK-4715,PAYLOAD,2024-05-13 06:00:00,15.08882458,0.0001341,53.2168,11.1464,82.1794,188.6559,-0.0048838,-0.00077269,0.0,0 STARLINK-4715,1 53801U 22111AE  24134.25001157 -.00077269  00000-0 -48838-2 0  9995,2 53801  53.2168  11.1464 0001341  82.1794 188.6559 15.08882458 92553,6917.751,95.435,540.543,538.688,0.0
53801.0,STARLINK-4715,PAYLOAD,2024-05-13 14:00:01,15.08820043,0.0001312,53.2171,9.6485,93.4165,189.0366,0.0023359,0.00037063,0.0,0 STARLINK-4715,1 53801U 22111AE  24134.58334491  .00037063  00000-0  23359-2 0  9998,2 53801  53.2171   9.6485 0001312  93.4165 189.0366 15.08820043  5857,6917.941,95.439,540.714,538.899,0.0
53801.0,STARLINK-4715,PAYLOAD,2024-05-13 22:00:00,15.08808854,0.0001352,53.2172,8.1539,71.9016,222.0861,1.9251e-05,1.8e-07,0.0,0 STARLINK-4715,1 53801U 22111AE  24134.91667824  .00000018  00000-0  19251-4 0  9992,2 53801  53.2172   8.1539 0001352  71.9016 222.0861 15.08808854 92650,6917.976,95.44,540.776,538.905,0.0
53801.0,STARLINK-4715,PAYLOAD,2024-05-14 14:00:01,15.08821699,0.0001246,53.2175,5.1595,79.9112,237.233,0.0033609,0.0005358,0.0,0 STARLINK-4715,1 53801U 22111AE  24135.58334491  .00053580  00000-0  33609-2 0  9990,2 53801  53.2175   5.1595 0001246  79.9112 237.2330 15.08821699 92751,6917.936,95.439,540.663,538.939,0.0
53801.0,STARLINK-4715,PAYLOAD,2024-05-14 22:00:00,15.08862773,0.0001325,53.2175,3.6649,68.733,260.0071,-0.0016082,-0.00025807,0.0,0 STARLINK-4715,1 53801U 22111AE  24135.91667824 -.00025807  00000-0 -16082-2 0  9995,2 53801  53.2175   3.6649 0001325  68.7330 260.0071 15.08862773  5860,6917.811,95.436,540.592,538.759,0.0
53801.0,STARLINK-4715,PAYLOAD,2024-05-15 06:00:00,15.08858642,0.0001283,53.2173,2.168,64.4267,275.9299,-0.0026363,-0.00042021,0.0,0 STARLINK-4715,1 53801U 22111AE  24136.25001157 -.00042021  00000-0 -26363-2 0  9994,2 53801  53.2173   2.1680 0001283  64.4267 275.9299 15.08858642 92854,6917.823,95.436,540.576,538.801,0.0
53801.0,STARLINK-4715,PAYLOAD,2024-05-15 14:00:01,15.08813724,0.0001131,53.2176,0.6705,97.4085,254.5546,0.00432,0.00069089,0.0,0 STARLINK-4715,1 53801U 22111AE  24136.58334491  .00069089  00000-0  43200-2 0  9990,2 53801  53.2176   0.6705 0001131  97.4085 254.5546 15.08813724  5713,6917.961,95.439,540.608,539.043,0.0
53801.0,STARLINK-4715,PAYLOAD,2024-05-15 22:00:00,15.08867995,0.000111,53.2175,359.176,91.2605,272.2892,-0.0012876,-0.00020737,0.0,0 STARLINK-4715,1 53801U 22111AE  24136.91667824 -.00020737  00000-0 -12876-2 0  9990,2 53801  53.2175 359.1760 0001110  91.2605 272.2892 15.08867995 92954,6917.795,95.436,540.428,538.892,0.0
53801.0,STARLINK-4715,PAYLOAD,2024-05-16 07:31:24,15.08886797,0.0001072,53.218,357.3934,84.8629,275.2485,0.0025226,0.0004014,0.0,0 STARLINK-4715,1 53801U 22111AE  24137.31347559  .00040140  00000-0  25226-2 0  9996,2 53801  53.2180 357.3934 0001072  84.8629 275.2485 15.08886797 93014,6917.737,95.435,540.344,538.861,0.0
53801.0,STARLINK-4715,PAYLOAD,2024-05-16 23:25:16,15.08855599,0.0002372,53.2176,354.4194,89.1322,270.9942,0.0024429,0.00038823,0.0,0 STARLINK-4715,1 53801U 22111AE  24137.97588465  .00038823  00000-0  24429-2 0  9990,2 53801  53.2176 354.4194 0002372  89.1322 270.9942 15.08855599 93114,6917.833,95.437,541.339,538.057,0.0
53801.0,STARLINK-4715,PAYLOAD,2024-05-17 18:29:54,15.08849117,7.73e-05,53.2171,350.8511,128.3884,231.7178,0.0022902,0.00036358,0.0,0 STARLINK-4715,1 53801U 22111AE  24138.77076629  .00036358  00000-0  22902-2 0  9998,2 53801  53.2171 350.8511 0000773 128.3884 231.7178 15.08849117 93232,6917.853,95.437,540.252,539.183,0.0
53801.0,STARLINK-4715,PAYLOAD,2024-05-17 21:40:40,15.08822878,0.000167,53.2171,350.257,156.4337,203.6732,0.002434,0.00038644,0.0,0 STARLINK-4715,1 53801U 22111AE  24138.90324490  .00038644  00000-0  24340-2 0  9993,2 53801  53.2171 350.2570 0001670 156.4337 203.6732 15.08822878 94064,6917.933,95.439,540.953,538.642,0.0
53801.0,STARLINK-4715,PAYLOAD,2024-05-18 13:34:32,15.08842577,0.0001186,53.2167,347.2821,99.3274,260.7853,0.0018865,0.00029865,0.0,0 STARLINK-4715,1 53801U 22111AE  24139.56564881  .00029865  00000-0  18865-2 0  9996,2 53801  53.2167 347.2821 0001186  99.3274 260.7853 15.08842577 93358,6917.873,95.437,540.558,538.917,0.0
53801.0,STARLINK-4715,PAYLOAD,2024-05-18 21:31:27,15.08876321,0.0001058,53.2166,345.797,81.391,278.7202,0.0020926,0.00033206,0.0,0 STARLINK-4715,1 53801U 22111AE  24139.89684107  .00033206  00000-0  20926-2 0  9991,2 53801  53.2166 345.7970 0001058  81.3910 278.7202 15.08876321 93408,6917.769,95.435,540.366,538.902,0.0
53801.0,STARLINK-4715,PAYLOAD,2024-05-19 19:46:51,15.08821304,9.04e-05,53.2181,341.6319,103.881,256.2283,0.0013293,0.0002092,0.0,0 STARLINK-4715,1 53801U 22111AE  24140.82420609  .00020920  00000-0  13293-2 0  9999,2 53801  53.2181 341.6319 0000904 103.8810 256.2283 15.08821304 93541,6917.938,95.439,540.428,539.177,0.0
53801.0,STARLINK-4715,PAYLOAD,2024-05-19 22:57:38,15.08814919,0.0001185,53.218,341.0382,79.925,280.1876,0.0022557,0.00035769,0.0,0 STARLINK-4715,1 53801U 22111AE  24140.95669223  .00035769  00000-0  22557-2 0  9990,2 53801  53.2180 341.0382 0001185  79.9250 280.1876 15.08814919 94377,6917.957,95.439,540.642,539.002,0.0
53801.0,STARLINK-4715,PAYLOAD,2024-05-20 19:37:39,15.0885258,0.0001012,53.2169,337.1722,99.3497,260.761,0.0015315,0.00024178,0.0,0 STARLINK-4715,1 53801U 22111AE  24141.81781469  .00024178  00000-0  15315-2 0  9999,2 53801  53.2169 337.1722 0001012  99.3497 260.7610 15.08852580 93696,6917.842,95.437,540.407,539.007,0.0
53801.0,STARLINK-4715,PAYLOAD,2024-05-21 19:28:25,15.08853698,7.07e-05,53.2168,332.7133,114.9069,245.1997,0.00089819,0.00014041,0.0,0 STARLINK-4715,1 53801U 22111AE  24142.81141117  .00014041  00000-0  89819-3 0  9999,2 53801  53.2168 332.7133 0000707 114.9069 245.1997 15.08853698 93844,6917.839,95.437,540.193,539.214,0.0
53801.0,STARLINK-4715,PAYLOAD,2024-05-22 19:19:13,15.08845625,9.4e-05,53.2177,328.2521,92.8779,267.2321,0.00042074,6.416e-05,0.0,0 STARLINK-4715,1 53801U 22111AE  24143.80501244  .00006416  00000-0  42074-3 0  9999,2 53801  53.2177 328.2521 0000940  92.8779 267.2321 15.08845625 93999,6917.863,95.437,540.378,539.078,0.0
53801.0,STARLINK-4715,PAYLOAD,2024-05-23 20:45:24,15.08828143,8.12e-05,53.2169,323.4943,88.9727,271.1358,0.00021456,3.128e-05,0.0,0 STARLINK-4715,1 53801U 22111AE  24144.86486172  .00003128  00000-0  21456-3 0  9996,2 53801  53.2169 323.4943 0000812  88.9727 271.1358 15.08828143 94151,6917.917,95.438,540.343,539.22,0.0
53801.0,STARLINK-4715,PAYLOAD,2024-05-24 12:39:15,15.08836924,7.2e-05,53.2161,320.5201,90.2274,269.8801,0.00031941,4.799e-05,0.0,0 STARLINK-4715,1 53801U 22111AE  24145.52726312  .00004799  00000-0  31941-3 0  9998,2 53801  53.2161 320.5201 0000720  90.2274 269.8801 15.08836924 95063,6917.89,95.438,540.253,539.257,0.0
53801.0,STARLINK-4715,PAYLOAD,2024-05-24 20:36:10,15.08854608,9.03e-05,53.2168,319.0306,100.1897,259.9197,0.00070135,0.00010896,0.0,0 STARLINK-4715,1 53801U 22111AE  24145.85845827  .00010896  00000-0  70135-3 0  9990,2 53801  53.2168 319.0306 0000903 100.1897 259.9197 15.08854608 94307,6917.836,95.437,540.325,539.076,0.0
53801.0,STARLINK-4715,PAYLOAD,2024-05-25 20:26:58,15.0884189,8.75e-05,53.2164,314.5734,105.2709,254.838,0.00024803,3.662e-05,0.0,0 STARLINK-4715,1 53801U 22111AE  24146.85206181  .00003662  00000-0  24803-3 0  9999,2 53801  53.2164 314.5734 0000875 105.2709 254.8380 15.08841890 94457,6917.875,95.437,540.345,539.134,0.0
